NUSAT-1 (FRESCO)        
1 41557U 16033B   23136.81907309  .00062676  00000+0  89811-3 0  9993
2 41557  97.3855 243.5534 0007410 237.1087 222.1865 15.55938990388747
NUSAT-2 (BATATA)        
1 41558U 16033C   23136.81715095  .00073050  00000+0  93032-3 0  9991
2 41558  97.4129 251.3702 0007536 229.8310 283.6624 15.59067691389070
CARTOSAT-2C             
1 41599U 16040A   23136.82072168  .00007569  00000+0  36110-3 0  9998
2 41599  97.4388 197.5530 0014369 101.8136   9.9487 15.19271312382543
SATHYABAMASAT           
1 41600U 16040B   23136.14146202  .00175430  00000+0  14499-2 0  9995
2 41600  97.1602 189.5922 0001545 319.1662  40.9485 15.69753722384201
LAPAN-A3                
1 41603U 16040E   23136.79301759  .00003495  00000+0  15421-3 0  9997
2 41603  97.1692 163.8084 0014531  70.5005  44.6442 15.22300567382717
BIROS                   
1 41604U 16040F   23136.55460086  .00006810  00000+0  24455-3 0  9992
2 41604  97.1661 173.3658 0011415  41.3158 318.8944 15.28914439383269
SWAYAM                  
1 41607U 16040J   23136.86520085  .00089502  00000+0  10583-2 0  9990
2 41607  97.1562 187.2126 0002773 352.8777   7.2441 15.60992819384110
BEESAT-4                
1 41619U 16040W   23136.12561928  .00070150  00000+0  10308-2 0  9997
2 41619  97.1619 185.5446 0003025  13.9634 346.1704 15.55248592371883
3CAT-2                  
1 41732U 16051B   23136.74640666  .00038331  00000+0  66349-3 0  9992
2 41732  97.3927  67.6825 0009639 149.6269 210.5543 15.50786557376605
PRATHAM                 
1 41783U 16059A   23136.85514448  .00000745  00000+0  15008-3 0  9990
2 41783  97.8711 169.3611 0032688 197.3142 162.6949 14.63906805354392
ALSAT 1N                
1 41789U 16059G   23136.87461879  .00001319  00000+0  25146-3 0  9999
2 41789  97.8716 174.7037 0027824 177.2564 182.8781 14.65361163354680
CARTOSAT-2D             
1 41948U 17008A   23136.92846686  .00006410  00000+0  30726-3 0  9997
2 41948  97.4167 196.7545 0005499 226.3493 306.5541 15.19241976346423
NAYIF-1 (EO-88)         
1 42017U 17008BX  23136.62424344  .00146239  00000+0  12362-2 0  9994
2 42017  97.2131 206.7902 0003978 171.5078 188.6252 15.69286363348502
ZHUHAI-1 02 (CAS-4B)    
1 42759U 17034B   23136.88089801  .00010984  00000+0  55672-3 0  9998
2 42759  43.0171 289.6549 0011980 262.2340 258.9875 15.16940045326882
ZHUHAI-1 01 (CAS-4A)    
1 42761U 17034D   23136.82856653  .00009768  00000+0  49602-3 0  9996
2 42761  43.0168 288.4789 0012819 263.3726 242.7557 15.16965187326888
UCLSAT                  
1 42765U 17036A   23136.56038002  .00044974  00000+0  84726-3 0  9997
2 42765  97.1452 175.7882 0007316 184.1039 176.0153 15.48357521328394
NIUSAT                  
1 42766U 17036B   23136.52228282  .00022200  00000+0  59750-3 0  9992
2 42766  97.1596 168.5781 0010075 204.1450 155.9325 15.37820935327745
CARTOSAT-2E             
1 42767U 17036C   23136.94607102  .00005915  00000+0  28354-3 0  9991
2 42767  97.4064 197.1572 0006130 293.6964 240.2816 15.19268761326997
AALTO-1                 
1 42775U 17036L   23136.32264875  .00016352  00000+0  49135-3 0  9995
2 42775  97.1551 167.3092 0009404 208.3566 151.7167 15.34442215327630
URSA MAIOR              
1 42776U 17036M   23136.81427549  .00017473  00000+0  49665-3 0  9992
2 42776  97.1559 169.0347 0009366 201.2674 158.8182 15.36177820327779
COMPASS 2               
1 42777U 17036N   23136.05381333  .00227948  00000+0  15665-2 0  9991
2 42777  97.1446 181.3877 0008115 182.7401 177.3821 15.73970060328452
MAX VALIER SAT          
1 42778U 17036P   23136.54939125  .00019912  00000+0  54280-3 0  9991
2 42778  97.1589 172.1668 0008128 198.8699 161.2247 15.37465732327861
PEGASUS                 
1 42784U 17036V   23136.56381280  .00034874  00000+0  74144-3 0  9998
2 42784  97.1505 174.4178 0007649 190.3514 169.7579 15.44883067328097
NUDTSAT                 
1 42787U 17036Y   23136.89397358  .00558751  12254-3  18307-2 0  9991
2 42787  97.1382 184.8748 0009050 205.7442 154.3376 15.90498252328634
SUCHAI                  
1 42788U 17036Z   23136.06093922  .00060577  00000+0  96422-3 0  9992
2 42788  97.1487 177.2671 0007495 186.6482 173.4674 15.53055571328303
SKCUBE                  
1 42789U 17036AA  23136.55083428  .00045438  00000+0  84393-3 0  9990
2 42789  97.1491 176.3936 0007275 183.9832 176.1363 15.48763744328215
VZLUSAT-1               
1 42790U 17036AB  23136.09494807  .00415157  00000+0  17287-2 0  9994
2 42790  97.1371 183.6756 0007838 198.0611 162.0383 15.84639404328639
ROBUSTA 1B              
1 42792U 17036AD  23136.57764270  .00056933  00000+0  95419-3 0  9990
2 42792  97.1466 177.5331 0006652 180.1659 179.9593 15.51635028328300
D-SAT                   
1 42794U 17036AF  23136.55710018  .00005271  00000+0  41901-3 0  9997
2 42794  97.4639 130.0959 0118599  48.8095 312.3280 14.95398609321201
NORSAT 2                
1 42828U 17042D   23136.54244350  .00003443  00000+0  31547-3 0  9996
2 42828  97.3969 339.0912 0012438 332.2609  27.7948 14.95482336317899
TECHNOSAT               
1 42829U 17042E   23136.50016756  .00002823  00000+0  27299-3 0  9990
2 42829  97.3915 335.8393 0012672 338.7760  21.2933 14.93476584317762
2017-042F               
1 42830U 17042F   23136.53422135  .00010520  00000+0  81493-3 0  9996
2 42830  97.4057 343.1903 0011074 300.3288  59.6841 15.01555757318120
FLYING LAPTOP           
1 42831U 17042G   23136.65705985  .00002220  00000+0  21832-3 0  9996
2 42831  97.3946 336.3039 0012781 339.4128  20.6565 14.92999212317782
CORVUS BC2              
1 42846U 17042X   23136.52881562  .00002352  00000+0  22224-3 0  9996
2 42846  97.3898 339.5651 0008012 329.2409  30.8342 14.94569407317990
CORVUS BC1              
1 42847U 17042Y   23136.52195025  .00002827  00000+0  26561-3 0  9994
2 42847  97.3895 339.9110 0007611 328.6003  31.4763 14.94658079318000
CZ-4C R/B               
1 43012U 17072C   23136.11646613  .00000505  00000+0  11278-3 0  9991
2 43012  98.6492 190.7519 0126887  19.9275 340.6813 14.56714482292287
RADFXSAT (FOX-1B)       
1 43017U 17073E   23136.19848801  .00004977  00000+0  35177-3 0  9999
2 43017  97.6355  21.8068 0234927 174.4975 185.8910 14.85669125296434
EAGLESAT 1              
1 43018U 17073F   23136.25610862  .00010633  00000+0  68306-3 0  9997
2 43018  97.6416  25.4788 0218304 162.6064 198.2788 14.90995269296530
INS-1C                  
1 43116U 18004F   23136.16801006  .00047835  00000+0  88849-3 0  9991
2 43116  97.3376 217.1818 0005761 223.5820 136.4977 15.48762637297410
FLOCK 3P'-3             
1 43119U 18004J   23136.15969000  .00282583  00000+0  31766-2 0  9998
2 43119  97.3244 214.3941 0008882 247.5890 112.4428 15.61638158297255
FLOCK 3P'-2             
1 43120U 18004K   23136.65825156  .00171367  00000+0  27103-2 0  9995
2 43120  97.3340 213.6462 0007810 249.2994 110.7423 15.52818459297236
FLOCK 3P'-4             
1 43122U 18004M   23136.18027114  .00161855  00000+0  28122-2 0  9996
2 43122  97.3357 213.2576 0007215 258.4027 101.6415 15.50210489297154
PICSAT                  
1 43132U 18004X   23136.46926908  .00065131  00000+0  10068-2 0  9997
2 43132  97.3312 218.8743 0005746 220.9891 139.0932 15.53861658297616
CNUSAIL-1               
1 43133U 18004Y   23136.17642179  .00027720  00000+0  66494-3 0  9998
2 43133  97.3289 213.5667 0005565 244.3197 115.7475 15.41339793297277
2018-004Z               
1 43134U 18004Z   23136.44565123  .00047777  00000+0  89156-3 0  9996
2 43134  97.3319 216.9031 0005422 231.6699 128.4065 15.48630941297498
FOX-1D (AO-92)          
1 43137U 18004AC  23136.46295635  .00032437  00000+0  71141-3 0  9991
2 43137  97.3296 215.3606 0005126 238.4222 121.6526 15.43996129297411
STEP CUBE LAB           
1 43138U 18004AD  23136.18527479  .01759097  24654-2  19072-2 0  9992
2 43138  97.3145 226.0833 0013172 261.1311  98.8482 16.10356193298039
XIAOXIANG-2             
1 43155U 18008A   23136.84374435  .00021688  00000+0  87970-3 0  9996
2 43155  97.3014 190.1353 0014523  64.6218  52.0370 15.24540356293879
ZHOU ENLAI              
1 43156U 18008B   23136.86405487  .00024035  00000+0  96186-3 0  9999
2 43156  97.3064 190.2268 0012257  67.9053  47.4411 15.25000013293805
QUANTUTONG 1            
1 43158U 18008D   23136.61532147  .00018353  00000+0  80119-3 0  9993
2 43158  97.3064 187.0647 0012037  71.4993  87.0962 15.22117197293610
S-NET D                 
1 43186U 18014G   23136.30414421  .00002793  00000+0  22732-3 0  9999
2 43186  97.6413  40.6977 0012005 266.3616  93.6235 15.00292760288777
S-NET B                 
1 43187U 18014H   23136.30503207  .00002741  00000+0  22327-3 0  9994
2 43187  97.6401  40.6314 0012176 264.7913  95.1922 15.00281898288771
S-NET A                 
1 43188U 18014J   23136.50529798  .00002518  00000+0  20548-3 0  9995
2 43188  97.6406  40.9135 0012201 264.1613  95.8220 15.00285220288806
S-NET C                 
1 43189U 18014K   23136.30709219  .00002698  00000+0  21990-3 0  9993
2 43189  97.6385  40.6154 0012505 261.6919  98.2887 15.00266542287327
SHAONIAN XING           
1 43199U 18015H   23136.84418736  .00139462  00000+0  12368-2 0  9993
2 43199  97.5419 294.0303 0008650 260.0743 206.1993 15.68093712294899
LUOJIA-1 01             
1 43485U 18048B   23136.72479825  .00002788  00000+0  38618-3 0  9997
2 43485  97.9049 217.3775 0010436 194.9412 165.1487 14.78763823267095
CZ-4B R/B               
1 43656U 18081B   23136.48107508  .00000229  00000+0  87645-4 0  9996
2 43656  99.4440 303.1501 0206556 268.0962  89.6552 14.30822319237972
CUBEBEL-1 (BSUSAT-1)    
1 43666U 18083E   23136.78083022  .00032544  00000+0  92028-3 0  9991
2 43666  97.3841 168.2413 0008628 221.1174 253.0601 15.36223823252377
CHANGSHAGAOXIN (TY 4-01)
1 43669U 18083H   23136.82411485  .00027620  00000+0  86326-3 0  9990
2 43669  97.3825 163.0751 0006080 218.9825 314.2920 15.33113297252135
